[{"OBJECT_NAME":"ONEWEB-0120","OBJECT_ID":"2020-100J","EPOCH":"2026-06-07T05:48:21.013632","MEAN_MOTION":13.1244234,"ECCENTRICITY":0.0001732,"INCLINATION":87.8944,"RA_OF_ASC_NODE":352.6496,"ARG_OF_PERICENTER":94.7347,"MEAN_ANOMALY":265.3979,"EPHEMERIS_TYPE":0,"CLASSIFICATION_TYPE":"U","NORAD_CAT_ID":47266,"ELEMENT_SET_NO":999,"REV_AT_EPOCH":26342,"BSTAR":-0.00019455,"MEAN_MOTION_DOT":-5.7e-07,"MEAN_MOTION_DDOT":0.0},{"OBJECT_NAME":"ONEWEB-0121","OBJECT_ID":"2020-100K","EPOCH":"2026-06-07T05:31:04.471104","MEAN_MOTION":13.12442196,"ECCENTRICITY":0.0001837,"INCLINATION":87.8952,"RA_OF_ASC_NODE":352.637,"ARG_OF_PERICENTER":78.5342,"MEAN_ANOMALY":281.5992,"EPHEMERIS_TYPE":0,"CLASSIFICATION_TYPE":"U","NORAD_CAT_ID":47267,"ELEMENT_SET_NO":999,"REV_AT_EPOCH":26333,"BSTAR":0.00078359,"MEAN_MOTION_DOT":2.95e-06,"MEAN_MOTION_DDOT":0.0},{"OBJECT_NAME":"ONEWEB-0122","OBJECT_ID":"2020-100L","EPOCH":"2026-06-07T07:12:19.706976","MEAN_MOTION":13.12441805,"ECCENTRICITY":0.0001658,"INCLINATION":87.8952,"RA_OF_ASC_NODE":352.6274,"ARG_OF_PERICENTER":91.6337,"MEAN_ANOMALY":268.4981,"EPHEMERIS_TYPE":0,"CLASSIFICATION_TYPE":"U","NORAD_CAT_ID":47268,"ELEMENT_SET_NO":999,"REV_AT_EPOCH":26325,"BSTAR":0.0011613,"MEAN_MOTION_DOT":4.3e-06,"MEAN_MOTION_DDOT":0.0},{"OBJECT_NAME":"ONEWEB-0123","OBJECT_ID":"2020-100M","EPOCH":"2026-06-07T07:06:13.485024","MEAN_MOTION":13.12443249,"ECCENTRICITY":0.0001865,"INCLINATION":87.8943,"RA_OF_ASC_NODE":352.6369,"ARG_OF_PERICENTER":89.9336,"MEAN_ANOMALY":270.2006,"EPHEMERIS_TYPE":0,"CLASSIFICATION_TYPE":"U","NORAD_CAT_ID":47269,"ELEMENT_SET_NO":999,"REV_AT_EPOCH":26339,"BSTAR":0.0012313,"MEAN_MOTION_DOT":4.56e-06,"MEAN_MOTION_DDOT":0.0},{"OBJECT_NAME":"ONEWEB-0124","OBJECT_ID":"2020-100N","EPOCH":"2026-06-07T06:51:34.938720","MEAN_MOTION":13.12444789,"ECCENTRICITY":0.0001821,"INCLINATION":87.8938,"RA_OF_ASC_NODE":352.6419,"ARG_OF_PERICENTER":86.6268,"MEAN_ANOMALY":273.5068,"EPHEMERIS_TYPE":0,"CLASSIFICATION_TYPE":"U","NORAD_CAT_ID":47270,"ELEMENT_SET_NO":999,"REV_AT_EPOCH":26327,"BSTAR":0.000821,"MEAN_MOTION_DOT":3.08e-06,"MEAN_MOTION_DDOT":0.0},{"OBJECT_NAME":"ONEWEB-0125","OBJECT_ID":"2020-100P","EPOCH":"2026-06-07T06:19:51.105216","MEAN_MOTION":13.12444617,"ECCENTRICITY":0.000205,"INCLINATION":87.895,"RA_OF_ASC_NODE":352.6286,"ARG_OF_PERICENTER":83.4512,"MEAN_ANOMALY":276.685,"EPHEMERIS_TYPE":0,"CLASSIFICATION_TYPE":"U","NORAD_CAT_ID":47271,"ELEMENT_SET_NO":999,"REV_AT_EPOCH":26333,"BSTAR":-0.0011196000000000001,"MEAN_MOTION_DOT":-3.9e-06,"MEAN_MOTION_DDOT":0.0},{"OBJECT_NAME":"ONEWEB-0126","OBJECT_ID":"2020-100Q","EPOCH":"2026-06-07T06:49:20.653248","MEAN_MOTION":13.12443219,"ECCENTRICITY":0.0001799,"INCLINATION":87.8944,"RA_OF_ASC_NODE":352.6407,"ARG_OF_PERICENTER":94.089,"MEAN_ANOMALY":266.0445,"EPHEMERIS_TYPE":0,"CLASSIFICATION_TYPE":"U","NORAD_CAT_ID":47272,"ELEMENT_SET_NO":999,"REV_AT_EPOCH":26340,"BSTAR":0.00059151,"MEAN_MOTION_DOT":2.26e-06,"MEAN_MOTION_DDOT":0.0},{"OBJECT_NAME":"ONEWEB-0127","OBJECT_ID":"2020-100R","EPOCH":"2026-06-07T06:00:19.996416","MEAN_MOTION":13.12443066,"ECCENTRICITY":0.0001728,"INCLINATION":87.8941,"RA_OF_ASC_NODE":352.6465,"ARG_OF_PERICENTER":93.2922,"MEAN_ANOMALY":266.8404,"EPHEMERIS_TYPE":0,"CLASSIFICATION_TYPE":"U","NORAD_CAT_ID":47273,"ELEMENT_SET_NO":999,"REV_AT_EPOCH":26342,"BSTAR":-0.00073255,"MEAN_MOTION_DOT":-2.51e-06,"MEAN_MOTION_DDOT":0.0},{"OBJECT_NAME":"ONEWEB-0128","OBJECT_ID":"2020-100S","EPOCH":"2026-06-07T06:32:02.782752","MEAN_MOTION":13.12442979,"ECCENTRICITY":0.0001551,"INCLINATION":87.8938,"RA_OF_ASC_NODE":352.6564,"ARG_OF_PERICENTER":82.2494,"MEAN_ANOMALY":277.881,"EPHEMERIS_TYPE":0,"CLASSIFICATION_TYPE":"U","NORAD_CAT_ID":47274,"ELEMENT_SET_NO":999,"REV_AT_EPOCH":26344,"BSTAR":-0.0007121499999999999,"MEAN_MOTION_DOT":-2.43e-06,"MEAN_MOTION_DDOT":0.0},{"OBJECT_NAME":"ONEWEB-0129","OBJECT_ID":"2020-100T","EPOCH":"2026-06-07T00:33:25.678368","MEAN_MOTION":13.12442585,"ECCENTRICITY":0.0001924,"INCLINATION":87.8952,"RA_OF_ASC_NODE":352.6781,"ARG_OF_PERICENTER":124.5441,"MEAN_ANOMALY":235.587,"EPHEMERIS_TYPE":0,"CLASSIFICATION_TYPE":"U","NORAD_CAT_ID":47275,"ELEMENT_SET_NO":999,"REV_AT_EPOCH":26334,"BSTAR":-0.0009839599999999999,"MEAN_MOTION_DOT":-3.41e-06,"MEAN_MOTION_DDOT":0.0},{"OBJECT_NAME":"ONEWEB-0130","OBJECT_ID":"2020-100U","EPOCH":"2026-06-07T06:41:49.246080","MEAN_MOTION":13.12444252,"ECCENTRICITY":0.0001693,"INCLINATION":87.8951,"RA_OF_ASC_NODE":352.623,"ARG_OF_PERICENTER":90.7084,"MEAN_ANOMALY":269.4238,"EPHEMERIS_TYPE":0,"CLASSIFICATION_TYPE":"U","NORAD_CAT_ID":47276,"ELEMENT_SET_NO":999,"REV_AT_EPOCH":26334,"BSTAR":0.00014575,"MEAN_MOTION_DOT":6.5e-07,"MEAN_MOTION_DDOT":0.0},{"OBJECT_NAME":"ONEWEB-0131","OBJECT_ID":"2020-100V","EPOCH":"2026-06-07T06:36:55.829088","MEAN_MOTION":13.12443992,"ECCENTRICITY":0.0001729,"INCLINATION":87.8937,"RA_OF_ASC_NODE":352.643,"ARG_OF_PERICENTER":88.6813,"MEAN_ANOMALY":271.4514,"EPHEMERIS_TYPE":0,"CLASSIFICATION_TYPE":"U","NORAD_CAT_ID":47277,"ELEMENT_SET_NO":999,"REV_AT_EPOCH":26338,"BSTAR":-0.00031807000000000005,"MEAN_MOTION_DOT":-1.02e-06,"MEAN_MOTION_DDOT":0.0},{"OBJECT_NAME":"ONEWEB-0132","OBJECT_ID":"2020-100W","EPOCH":"2026-06-07T05:28:38.519040","MEAN_MOTION":13.12442597,"ECCENTRICITY":0.0001737,"INCLINATION":87.8943,"RA_OF_ASC_NODE":352.6538,"ARG_OF_PERICENTER":86.887,"MEAN_ANOMALY":273.2457,"EPHEMERIS_TYPE":0,"CLASSIFICATION_TYPE":"U","NORAD_CAT_ID":47278,"ELEMENT_SET_NO":999,"REV_AT_EPOCH":26327,"BSTAR":0.00074506,"MEAN_MOTION_DOT":2.81e-06,"MEAN_MOTION_DDOT":0.0},{"OBJECT_NAME":"ONEWEB-0133","OBJECT_ID":"2020-100X","EPOCH":"2026-06-07T05:52:49.156032","MEAN_MOTION":13.12443285,"ECCENTRICITY":0.0001657,"INCLINATION":87.8956,"RA_OF_ASC_NODE":352.6252,"ARG_OF_PERICENTER":85.0213,"MEAN_ANOMALY":275.1105,"EPHEMERIS_TYPE":0,"CLASSIFICATION_TYPE":"U","NORAD_CAT_ID":47279,"ELEMENT_SET_NO":999,"REV_AT_EPOCH":26343,"BSTAR":-0.00043642999999999997,"MEAN_MOTION_DOT":-1.44e-06,"MEAN_MOTION_DDOT":0.0},{"OBJECT_NAME":"ONEWEB-0134","OBJECT_ID":"2020-100Y","EPOCH":"2026-06-07T06:58:53.595840","MEAN_MOTION":13.12444352,"ECCENTRICITY":0.0001557,"INCLINATION":87.8953,"RA_OF_ASC_NODE":352.6133,"ARG_OF_PERICENTER":94.2138,"MEAN_ANOMALY":265.9168,"EPHEMERIS_TYPE":0,"CLASSIFICATION_TYPE":"U","NORAD_CAT_ID":47280,"ELEMENT_SET_NO":999,"REV_AT_EPOCH":26341,"BSTAR":0.00092142,"MEAN_MOTION_DOT":3.44e-06,"MEAN_MOTION_DDOT":0.0},{"OBJECT_NAME":"ONEWEB-0135","OBJECT_ID":"2020-100Z","EPOCH":"2026-06-07T06:17:24.633888","MEAN_MOTION":13.12443961,"ECCENTRICITY":0.0001454,"INCLINATION":87.8943,"RA_OF_ASC_NODE":352.6435,"ARG_OF_PERICENTER":89.0024,"MEAN_ANOMALY":271.1271,"EPHEMERIS_TYPE":0,"CLASSIFICATION_TYPE":"U","NORAD_CAT_ID":47281,"ELEMENT_SET_NO":999,"REV_AT_EPOCH":26343,"BSTAR":-0.0009760799999999999,"MEAN_MOTION_DOT":-3.38e-06,"MEAN_MOTION_DDOT":0.0}]