ONEWEB-0120             
1 47266U 20100J   26158.24190988 -.00000057  00000+0 -19455-3 0  9991
2 47266  87.8944 352.6496 0001732  94.7347 265.3979 13.12442340263421
ONEWEB-0121             
1 47267U 20100K   26158.22991286  .00000295  00000+0  78359-3 0  9990
2 47267  87.8952 352.6370 0001837  78.5342 281.5992 13.12442196263337
ONEWEB-0122             
1 47268U 20100L   26158.30022809  .00000430  00000+0  11613-2 0  9996
2 47268  87.8952 352.6274 0001658  91.6337 268.4981 13.12441805263251
ONEWEB-0123             
1 47269U 20100M   26158.29598941  .00000456  00000+0  12313-2 0  9996
2 47269  87.8943 352.6369 0001865  89.9336 270.2006 13.12443249263394
ONEWEB-0124             
1 47270U 20100N   26158.28582105  .00000308  00000+0  82100-3 0  9990
2 47270  87.8938 352.6419 0001821  86.6268 273.5068 13.12444789263277
ONEWEB-0125             
1 47271U 20100P   26158.26378594 -.00000390  00000+0 -11196-2 0  9993
2 47271  87.8950 352.6286 0002050  83.4512 276.6850 13.12444617263336
ONEWEB-0126             
1 47272U 20100Q   26158.28426682  .00000226  00000+0  59151-3 0  9998
2 47272  87.8944 352.6407 0001799  94.0890 266.0445 13.12443219263409
ONEWEB-0127             
1 47273U 20100R   26158.25023144 -.00000251  00000+0 -73255-3 0  9993
2 47273  87.8941 352.6465 0001728  93.2922 266.8404 13.12443066263425
ONEWEB-0128             
1 47274U 20100S   26158.27225443 -.00000243  00000+0 -71215-3 0  9997
2 47274  87.8938 352.6564 0001551  82.2494 277.8810 13.12442979263445
ONEWEB-0129             
1 47275U 20100T   26158.02321387 -.00000341  00000+0 -98396-3 0  9993
2 47275  87.8952 352.6781 0001924 124.5441 235.5870 13.12442585263348
ONEWEB-0130             
1 47276U 20100U   26158.27904220  .00000065  00000+0  14575-3 0  9992
2 47276  87.8951 352.6230 0001693  90.7084 269.4238 13.12444252263344
ONEWEB-0131             
1 47277U 20100V   26158.27564617 -.00000102  00000+0 -31807-3 0  9996
2 47277  87.8937 352.6430 0001729  88.6813 271.4514 13.12443992263381
ONEWEB-0132             
1 47278U 20100W   26158.22822360  .00000281  00000+0  74506-3 0  9993
2 47278  87.8943 352.6538 0001737  86.8870 273.2457 13.12442597263274
ONEWEB-0133             
1 47279U 20100X   26158.24501338 -.00000144  00000+0 -43643-3 0  9993
2 47279  87.8956 352.6252 0001657  85.0213 275.1105 13.12443285263439
ONEWEB-0134             
1 47280U 20100Y   26158.29089810  .00000344  00000+0  92142-3 0  9994
2 47280  87.8953 352.6133 0001557  94.2138 265.9168 13.12444352263413
ONEWEB-0135             
1 47281U 20100Z   26158.26209067 -.00000338  00000+0 -97608-3 0  9997
2 47281  87.8943 352.6435 0001454  89.0024 271.1271 13.12443961263431
